NORAD_CAT_ID,OBJECT_NAME,OBJECT_TYPE,EPOCH,MEAN_MOTION,ECCENTRICITY,INCLINATION,RA_OF_ASC_NODE,ARG_OF_PERICENTER,MEAN_ANOMALY,BSTAR,MEAN_MOTION_DOT,MEAN_MOTION_DDOT,TLE_LINE0,TLE_LINE1,TLE_LINE2,SEMIMAJOR_AXIS,PERIOD,APOGEE,PERIGEE,DECAYED
54052.0,STARLINK-5189,PAYLOAD,2022-12-13 03:42:35,15.73220336,0.0002848,53.2163,242.504,9.7044,350.4031,3.0266e-05,3.631e-05,0.0,0 STARLINK-5189,1 54052U 22136B   22347.15458260  .00003631  00000-0  30266-4 0  9993,2 54052  53.2163 242.5040 0002848   9.7044 350.4031 15.73220336  8940,6727.837,91.532,351.61800000000005,347.786,0.0
54052.0,STARLINK-5189,PAYLOAD,2022-12-13 17:25:55,15.73201898,0.0003101,53.2149,239.6739,17.0233,343.089,1.2386e-05,1.116e-05,0.0,0 STARLINK-5189,1 54052U 22136B   22347.72633950  .00001116  00000-0  12386-4 0  9996,2 54052  53.2149 239.6739 0003101  17.0233 343.0890 15.73201898  9035,6727.89,91.533,351.841,347.668,0.0
54052.0,STARLINK-5189,PAYLOAD,2022-12-14 10:12:13,15.73184652,0.0002877,53.2166,236.2159,20.9588,339.155,-3.788e-05,-5.933e-05,0.0,0 STARLINK-5189,1 54052U 22136B   22348.42515474 -.00005933  00000-0 -37880-4 0  9993,2 54052  53.2166 236.2159 0002877  20.9588 339.1550 15.73184652  9147,6727.939,91.534,351.74,347.86800000000005,0.0
54052.0,STARLINK-5189,PAYLOAD,2022-12-14 22:24:03,15.73205036,0.0003745,53.216,233.7043,24.0989,336.0205,3.1124e-05,3.748e-05,0.0,0 STARLINK-5189,1 54052U 22136B   22348.93337744  .00003748  00000-0  31124-4 0  9996,2 54052  53.2160 233.7043 0003745  24.0989 336.0205 15.73205036  9222,6727.880999999999,91.533,352.265,347.226,0.0
54052.0,STARLINK-5189,PAYLOAD,2022-12-15 01:27:00,15.73229129,0.0003001,53.2148,233.0749,17.3607,342.7515,8.089e-05,0.0001076,0.0,0 STARLINK-5189,1 54052U 22136B   22349.06042245  .00010760  00000-0  80890-4 0  9996,2 54052  53.2148 233.0749 0003001  17.3607 342.7515 15.73229129  9240,6727.812,91.531,351.696,347.658,0.0
54052.0,STARLINK-5189,PAYLOAD,2022-12-15 12:07:21,15.73225913,0.0002935,53.2155,230.8727,13.3465,346.7633,5.4811e-05,7.086e-05,0.0,0 STARLINK-5189,1 54052U 22136B   22349.50511366  .00007086  00000-0  54811-4 0  9991,2 54052  53.2155 230.8727 0002935  13.3465 346.7633 15.73225913  8838,6727.821,91.532,351.661,347.712,0.0
54052.0,STARLINK-5189,PAYLOAD,2022-12-15 13:38:50,15.73220308,0.0003043,53.2155,230.5576,9.8999,350.2081,4.0249e-05,5.035e-05,0.0,0 STARLINK-5189,1 54052U 22136B   22349.56864301  .00005035  00000-0  40249-4 0  9999,2 54052  53.2155 230.5576 0003043   9.8999 350.2081 15.73220308  9325,6727.837,91.532,351.75,347.655,0.0
54052.0,STARLINK-5189,PAYLOAD,2022-12-15 19:44:45,15.7323291,0.0002995,53.216,229.301,12.6509,347.4586,5.1495e-05,6.621e-05,0.0,0 STARLINK-5189,1 54052U 22136B   22349.82274622  .00006621  00000-0  51495-4 0  9996,2 54052  53.2160 229.3010 0002995  12.6509 347.4586 15.73232910  8884,6727.801,91.531,351.681,347.651,0.0
54052.0,STARLINK-5189,PAYLOAD,2022-12-16 09:28:04,15.73224523,0.0003134,53.2156,226.4713,17.7468,342.3661,2.2059e-05,2.477e-05,0.0,0 STARLINK-5189,1 54052U 22136B   22350.39449424  .00002477  00000-0  22059-4 0  9993,2 54052  53.2156 226.4713 0003134  17.7468 342.3661 15.73224523  8972,6727.825,91.532,351.7990000000001,347.582,0.0
54052.0,STARLINK-5189,PAYLOAD,2022-12-16 20:08:26,15.73198636,0.0003268,53.2151,224.2708,16.9779,343.135,-3.947e-05,-6.159999999999999e-05,0.0,0 STARLINK-5189,1 54052U 22136B   22350.83919647 -.00006160  00000-0 -39470-4 0  9991,2 54052  53.2151 224.2708 0003268  16.9779 343.1350 15.73198636  9522,6727.899,91.533,351.963,347.565,0.0
54052.0,STARLINK-5189,PAYLOAD,2022-12-17 08:20:18,15.73169491,0.0003346,53.2154,221.7557,22.842,337.2748,-6.5988e-05,-9.864e-05,0.0,0 STARLINK-5189,1 54052U 22136B   22351.34743764 -.00009864  00000-0 -65988-4 0  9990,2 54052  53.2154 221.7557 0003346  22.8420 337.2748 15.73169491  9123,6727.982,91.535,352.098,347.596,0.0
54052.0,STARLINK-5189,PAYLOAD,2022-12-17 22:03:36,15.7321196,0.0002943,53.2151,218.9268,12.8238,347.2857,4.211e-05,5.295e-05,0.0,0 STARLINK-5189,1 54052U 22136B   22351.91917679  .00005295  00000-0  42110-4 0  9995,2 54052  53.2151 218.9268 0002943  12.8238 347.2857 15.73211960  9216,6727.861,91.532,351.706,347.746,0.0
54052.0,STARLINK-5189,PAYLOAD,2022-12-17 23:35:05,15.73208055,0.0002852,53.2153,218.6128,18.0602,342.0519,3.436e-05,4.204e-05,0.0,0 STARLINK-5189,1 54052U 22136B   22351.98270674  .00004204  00000-0  34360-4 0  9996,2 54052  53.2153 218.6128 0002852  18.0602 342.0519 15.73208055  9705,6727.871999999999,91.533,351.656,347.8180000000001,0.0
54052.0,STARLINK-5189,PAYLOAD,2022-12-18 10:15:27,15.73214942,0.0003051,53.215,216.4124,14.1793,345.9313,5.1325e-05,6.592e-05,0.0,0 STARLINK-5189,1 54052U 22136B   22352.42739904  .00006592  00000-0  51325-4 0  9994,2 54052  53.2150 216.4124 0003051  14.1793 345.9313 15.73214942  9294,6727.853,91.532,351.77,347.665,0.0
54052.0,STARLINK-5189,PAYLOAD,2022-12-18 20:55:48,15.73211293,0.0003238,53.2151,214.211,12.8186,347.2916,3.645300000000001e-05,4.499e-05,0.0,0 STARLINK-5189,1 54052U 22136B   22352.87209168  .00004499  00000-0  36453-4 0  9996,2 54052  53.2151 214.2110 0003238  12.8186 347.2916 15.73211293  9362,6727.863,91.533,351.906,347.5490000000001,0.0
54052.0,STARLINK-5189,PAYLOAD,2022-12-18 23:58:45,15.73230886,0.0002965,53.2144,213.5821,12.8535,347.256,7.8966e-05,0.0001049,0.0,0 STARLINK-5189,1 54052U 22136B   22352.99913811  .00010490  00000-0  78966-4 0  9999,2 54052  53.2144 213.5821 0002965  12.8535 347.2560 15.73230886  9868,6727.807,91.531,351.667,347.677,0.0
54052.0,STARLINK-5189,PAYLOAD,2022-12-19 07:36:10,15.73211119,0.0003449,53.2151,212.0086,21.2801,338.8362,4.576100000000001e-05,5.808e-05,0.0,0 STARLINK-5189,1 54052U 22136B   22353.31678821  .00005808  00000-0  45761-4 0  9999,2 54052  53.2151 212.0086 0003449  21.2801 338.8362 15.73211119  9911,6727.863,91.533,352.0490000000001,347.408,0.0
54052.0,STARLINK-5189,PAYLOAD,2022-12-19 15:13:33,15.73217732,0.0002931,53.2153,210.439,12.2637,347.8454,2.455e-05,2.827e-05,0.0,0 STARLINK-5189,1 54052U 22136B   22353.63442044  .00002827  00000-0  24550-4 0  9991,2 54052  53.2153 210.4390 0002931  12.2637 347.8454 15.73217732  9486,6727.845,91.532,351.682,347.73800000000006,0.0
54052.0,STARLINK-5189,PAYLOAD,2022-12-20 00:22:27,15.73194175,0.0003036,53.2141,208.5516,8.2677,351.8393,-3.8311e-05,-5.996e-05,0.0,0 STARLINK-5189,1 54052U 22136B   22354.01560000 -.00005996  00000-0 -38311-4 0  9999,2 54052  53.2141 208.5516 0003036   8.2677 351.8393 15.73194175 10021,6727.9119999999975,91.534,351.819,347.7340000000001,0.0
54052.0,STARLINK-5189,PAYLOAD,2022-12-20 09:31:19,15.73215969,0.0003143,53.2143,206.6662,5.8853,354.2204,1.3219999999999998e-06,-4.38e-06,0.0,0 STARLINK-5189,1 54052U 22136B   22354.39675467 -.00000438  00000-0  13220-5 0  9992,2 54052  53.2143 206.6662 0003143   5.8853 354.2204 15.73215969 10081,6727.85,91.532,351.829,347.6,0.0
54052.0,STARLINK-5189,PAYLOAD,2022-12-20 20:11:40,15.73231303,0.0003066,53.2144,204.4666,8.8654,351.242,4.0581e-05,5.084e-05,0.0,0 STARLINK-5189,1 54052U 22136B   22354.84143997  .00005084  00000-0  40581-4 0  9990,2 54052  53.2144 204.4666 0003066   8.8654 351.2420 15.73231303 10153,6727.806,91.531,351.7340000000001,347.608,0.0
54052.0,STARLINK-5189,PAYLOAD,2022-12-21 00:46:07,15.73202648,0.0002004,53.2146,203.5221,2.0627,358.0401,-1.9369e-05,-3.339e-05,0.0,0 STARLINK-5189,1 54052U 22136B   22355.03202972 -.00003339  00000-0 -19369-4 0  9994,2 54052  53.2146 203.5221 0002004   2.0627 358.0401 15.73202648 10186,6727.888000000001,91.533,351.101,348.404,0.0
54052.0,STARLINK-5189,PAYLOAD,2022-12-21 06:52:03,15.73183472,0.0003271,53.2144,202.2647,14.643,345.4684,-4.944800000000001e-05,-7.554e-05,0.0,0 STARLINK-5189,1 54052U 22136B   22355.28615516 -.00007554  00000-0 -49448-4 0  9997,2 54052  53.2144 202.2647 0003271  14.6430 345.4684 15.73183472 10221,6727.941999999999,91.534,352.0080000000001,347.607,0.0
54052.0,STARLINK-5189,PAYLOAD,2022-12-22 01:09:49,15.73215931,0.0003666,53.215,198.4926,16.0595,344.05400000000014,6.0517e-05,7.886e-05,0.0,0 STARLINK-5189,1 54052U 22136B   22356.04848893  .00007886  00000-0  60517-4 0  9994,2 54052  53.2150 198.4926 0003666  16.0595 344.0540 15.73215931 10345,6727.85,91.532,352.181,347.24800000000016,0.0
54052.0,STARLINK-5189,PAYLOAD,2022-12-22 13:21:40,15.7319767,0.0002898999999999,53.2153,195.9779,10.4947,349.6134,2.5558e-06,-2.64e-06,0.0,0 STARLINK-5189,1 54052U 22136B   22356.55671943 -.00000264  00000-0  25558-5 0  9991,2 54052  53.2153 195.9779 0002899  10.4947 349.6134 15.73197670 10420,6727.901999999999,91.533,351.717,347.816,0.0
54052.0,STARLINK-5189,PAYLOAD,2022-12-22 16:24:38,15.7318072,0.0003506,53.2141,195.3483,358.9137,1.1875,-2.102800000000001e-05,-3.572e-05,0.0,0 STARLINK-5189,1 54052U 22136B   22356.68378371 -.00003572  00000-0 -21028-4 0  9997,2 54052  53.2141 195.3483 0003506 358.9137   1.1875 15.73180720  9967,6727.95,91.534,352.1740000000001,347.456,0.0
54052.0,STARLINK-5189,PAYLOAD,2022-12-23 13:45:23,15.73190618,0.0003234,53.2153,190.948,9.0732,351.0346,3.4175e-05,4.175e-05,0.0,0 STARLINK-5189,1 54052U 22136B   22357.57318294  .00004175  00000-0  34175-4 0  9999,2 54052  53.2153 190.9480 0003234   9.0732 351.0346 15.73190618 10588,6727.922,91.534,351.963,347.611,0.0
54052.0,STARLINK-5189,PAYLOAD,2022-12-23 19:51:17,15.73217392,0.000333,53.2154,189.6912,10.5026,349.6063,6.358899999999999e-05,8.319e-05,0.0,0 STARLINK-5189,1 54052U 22136B   22357.82728597  .00008319  00000-0  63589-4 0  9993,2 54052  53.2154 189.6912 0003330  10.5026 349.6063 15.73217392 10144,6727.846,91.532,351.951,347.47,0.0
54052.0,STARLINK-5189,PAYLOAD,2022-12-23 22:54:14,15.73229394,0.0003205,53.2151,189.0619,13.1893,346.9211,8.4382e-05,0.00011253,0.0,0 STARLINK-5189,1 54052U 22136B   22357.95433552  .00011253  00000-0  84382-4 0  9996,2 54052  53.2151 189.0619 0003205  13.1893 346.9211 15.73229394 10646,6727.811,91.531,351.833,347.52,0.0
